{
  "links" : {
    "next" : "https://api.nasa.gov/neo/rest/v1/feed?start_date=2005-09-16&end_date=2005-09-16&detailed=true&api_key=t0TVs3DtDT2H8Oy2Zy8m2eVrNsAVKAexjcZXUckd",
    "prev" : "https://api.nasa.gov/neo/rest/v1/feed?start_date=2005-09-14&end_date=2005-09-14&detailed=true&api_key=t0TVs3DtDT2H8Oy2Zy8m2eVrNsAVKAexjcZXUckd",
    "self" : "https://api.nasa.gov/neo/rest/v1/feed?start_date=2005-09-15&end_date=2005-09-15&detailed=true&api_key=t0TVs3DtDT2H8Oy2Zy8m2eVrNsAVKAexjcZXUckd"
  },
  "element_count" : 6,
  "near_earth_objects" : {
    "2005-09-15" : [ {
      "links" : {
        "self" : "https://api.nasa.gov/neo/rest/v1/neo/3291100?api_key=t0TVs3DtDT2H8Oy2Zy8m2eVrNsAVKAexjcZXUckd"
      },
      "neo_reference_id" : "3291100",
      "name" : "(2005 SP1)",
      "nasa_jpl_url" : "http://ssd.jpl.nasa.gov/sbdb.cgi?sstr=3291100",
      "absolute_magnitude_h" : 23.3,
      "estimated_diameter" : {
        "kilometers" : {
          "estimated_diameter_min" : 0.058150704,
          "estimated_diameter_max" : 0.130028927
        },
        "meters" : {
          "estimated_diameter_min" : 58.1507039646,
          "estimated_diameter_max" : 130.0289270043
        },
        "miles" : {
          "estimated_diameter_min" : 0.0361331611,
          "estimated_diameter_max" : 0.0807962044
        },
        "feet" : {
          "estimated_diameter_min" : 190.7831555951,
          "estimated_diameter_max" : 426.6041048727
        }
      },
      "is_potentially_hazardous_asteroid" : false,
      "close_approach_data" : [ {
        "close_approach_date" : "2005-09-15",
        "epoch_date_close_approach" : 1126767600000,
        "relative_velocity" : {
          "kilometers_per_second" : "16.8973687006",
          "kilometers_per_hour" : "60830.5273222198",
          "miles_per_hour" : "37797.7240464093"
        },
        "miss_distance" : {
          "astronomical" : "0.0145385343",
          "lunar" : "5.6554899216",
          "kilometers" : "2174933.75",
          "miles" : "1351441.125"
        },
        "orbiting_body" : "Earth"
      } ],
      "orbital_data" : {
        "orbit_id" : "18",
        "orbit_determination_date" : "2017-04-06 09:10:28",
        "orbit_uncertainty" : "8",
        "minimum_orbit_intersection" : ".0141354",
        "jupiter_tisserand_invariant" : "3.189",
        "epoch_osculation" : "2453642.5",
        "eccentricity" : ".668062867259075",
        "semi_major_axis" : "2.377534709474642",
        "inclination" : "5.981392980695345",
        "ascending_node_longitude" : "180.1862272482878",
        "orbital_period" : "1339.025123983604",
        "perihelion_distance" : ".7891920544550408",
        "perihelion_argument" : "109.6363889693866",
        "aphelion_distance" : "3.965877364494244",
        "perihelion_time" : "2453588.069854534201",
        "mean_anomaly" : "14.63367043434771",
        "mean_motion" : ".2688523116944952",
        "equinox" : "J2000"
      }
    }, {
      "links" : {
        "self" : "https://api.nasa.gov/neo/rest/v1/neo/2434632?api_key=t0TVs3DtDT2H8Oy2Zy8m2eVrNsAVKAexjcZXUckd"
      },
      "neo_reference_id" : "2434632",
      "name" : "434632 (2005 WE)",
      "nasa_jpl_url" : "http://ssd.jpl.nasa.gov/sbdb.cgi?sstr=2434632",
      "absolute_magnitude_h" : 19.8,
      "estimated_diameter" : {
        "kilometers" : {
          "estimated_diameter_min" : 0.2914439045,
          "estimated_diameter_max" : 0.6516883822
        },
        "meters" : {
          "estimated_diameter_min" : 291.4439045349,
          "estimated_diameter_max" : 651.6883821679
        },
        "miles" : {
          "estimated_diameter_min" : 0.1810947904,
          "estimated_diameter_max" : 0.4049402617
        },
        "feet" : {
          "estimated_diameter_min" : 956.1808197541,
          "estimated_diameter_max" : 2138.0853117517
        }
      },
      "is_potentially_hazardous_asteroid" : false,
      "close_approach_data" : [ {
        "close_approach_date" : "2005-09-15",
        "epoch_date_close_approach" : 1126767600000,
        "relative_velocity" : {
          "kilometers_per_second" : "8.084588828",
          "kilometers_per_hour" : "29104.5197808881",
          "miles_per_hour" : "18084.416749408"
        },
        "miss_distance" : {
          "astronomical" : "0.2094577976",
          "lunar" : "81.4790878296",
          "kilometers" : "31334442",
          "miles" : "19470320"
        },
        "orbiting_body" : "Earth"
      } ],
      "orbital_data" : {
        "orbit_id" : "44",
        "orbit_determination_date" : "2017-04-06 09:20:48",
        "orbit_uncertainty" : "0",
        "minimum_orbit_intersection" : ".127077",
        "jupiter_tisserand_invariant" : "5.409",
        "epoch_osculation" : "2458000.5",
        "eccentricity" : ".2513969702048102",
        "semi_major_axis" : "1.151234841946835",
        "inclination" : "12.36463348869641",
        "ascending_node_longitude" : "289.9485691790042",
        "orbital_period" : "451.1742596395365",
        "perihelion_distance" : ".8618178906871873",
        "perihelion_argument" : "22.62495531962762",
        "aphelion_distance" : "1.440651793206483",
        "perihelion_time" : "2458112.348931959110",
        "mean_anomaly" : "270.7537395031142",
        "mean_motion" : ".7979178605792366",
        "equinox" : "J2000"
      }
    }, {
      "links" : {
        "self" : "https://api.nasa.gov/neo/rest/v1/neo/3321534?api_key=t0TVs3DtDT2H8Oy2Zy8m2eVrNsAVKAexjcZXUckd"
      },
      "neo_reference_id" : "3321534",
      "name" : "(2006 CW9)",
      "nasa_jpl_url" : "http://ssd.jpl.nasa.gov/sbdb.cgi?sstr=3321534",
      "absolute_magnitude_h" : 24.4,
      "estimated_diameter" : {
        "kilometers" : {
          "estimated_diameter_min" : 0.0350392641,
          "estimated_diameter_max" : 0.0783501764
        },
        "meters" : {
          "estimated_diameter_min" : 35.0392641108,
          "estimated_diameter_max" : 78.3501764334
        },
        "miles" : {
          "estimated_diameter_min" : 0.0217723826,
          "estimated_diameter_max" : 0.0486845275
        },
        "feet" : {
          "estimated_diameter_min" : 114.9582192654,
          "estimated_diameter_max" : 257.0543928497
        }
      },
      "is_potentially_hazardous_asteroid" : false,
      "close_approach_data" : [ {
        "close_approach_date" : "2005-09-15",
        "epoch_date_close_approach" : 1126767600000,
        "relative_velocity" : {
          "kilometers_per_second" : "10.4796213462",
          "kilometers_per_hour" : "37726.6368464539",
          "miles_per_hour" : "23441.864989398"
        },
        "miss_distance" : {
          "astronomical" : "0.3668099386",
          "lunar" : "142.6890716553",
          "kilometers" : "54873984",
          "miles" : "34097112"
        },
        "orbiting_body" : "Earth"
      } ],
      "orbital_data" : {
        "orbit_id" : "8",
        "orbit_determination_date" : "2017-04-06 09:09:09",
        "orbit_uncertainty" : "8",
        "minimum_orbit_intersection" : ".0186789",
        "jupiter_tisserand_invariant" : "4.889",
        "epoch_osculation" : "2453773.5",
        "eccentricity" : ".2702994793345346",
        "semi_major_axis" : "1.304691695945509",
        "inclination" : "20.88037835352494",
        "ascending_node_longitude" : "135.3731566945233",
        "orbital_period" : "544.3274978702949",
        "perihelion_distance" : ".9520342098393468",
        "perihelion_argument" : "318.4323736563906",
        "aphelion_distance" : "1.657349182051671",
        "perihelion_time" : "2453734.580233458580",
        "mean_anomaly" : "25.74023177173724",
        "mean_motion" : ".6613665512187344",
        "equinox" : "J2000"
      }
    } ]
  }
}